HELIOS 2A               
1 28492U 04049A   23019.53473889  .00003642  00000+0  34800-3 0  9996
2 28492  98.2616 338.0234 0015596  91.7665 268.5321 14.93860798967376
SPIRALE A               
1 33751U 09008C   23018.71304156  .00000333  00000+0  11197-2 0  9996
2 33751   2.1081  51.2207 5463279 292.7265  19.5688  4.58908568204702
SPIRALE B               
1 33752U 09008D   23018.66132474  .00003559  00000+0  14130-2 0  9996
2 33752   2.2052   2.0185 6836211  20.1080 357.2197  2.83672408131174
SAPPHIRE                
1 39088U 13009C   23019.46058351  .00000353  00000+0  14069-3 0  9991
2 39088  98.4158 214.7274 0011328   0.6333 359.4865 14.34367681518100
